{"type": "FeatureCollection", "features": [ {"type": "Feature", "properties": {"norad_id": 39019, "name": "PLEIADES 1B", "group": "resource", "lat": -49.893730090955614, "lon": -121.53454885249221, "alt_km": 705.4144048488552, "timestamp": "2025-12-21T18:54:58.150270+00:00", "meta": {"OBJECT_NAME": "PLEIADES 1B", "OBJECT_ID": "2012-068A", "EPOCH": "2025-12-21T12:55:23.685312", "MEAN_MOTION": 14.58560964, "ECCENTRICITY": 0.00011795, "INCLINATION": 98.1791, "RA_OF_ASC_NODE": 68.0517, "ARG_OF_PERICENTER": 84.1993, "MEAN_ANOMALY": 275.9341, "EPHEMERIS_TYPE": 0, "CLASSIFICATION_TYPE": "U", "NORAD_CAT_ID": 39019, "ELEMENT_SET_NO": 999, "REV_AT_EPOCH": 69495, "BSTAR": 0.00012788769, "MEAN_MOTION_DOT": 5.49e-06, "MEAN_MOTION_DDOT": 0}, "tle": {"line1": "1 39019U 12068A   25355.53846858  .00000549  00000+0  12789-3 0  9993", "line2": "2 39019  98.1791  68.0517 0001179  84.1993 275.9341 14.58560964694950"}}, "geometry": {"type": "Point", "coordinates": [-121.53454885249221, -49.893730090955614]}}, {"type": "Feature", "properties": {"norad_id": 39030, "name": "GOKTURK 2", "group": "resource", "lat": -82.30633936480555, "lon": -73.24606888806201, "alt_km": 652.4346236551628, "timestamp": "2025-12-21T18:54:58.150281+00:00", "meta": {"OBJECT_NAME": "GOKTURK 2", "OBJECT_ID": "2012-073A", "EPOCH": "2025-12-21T14:26:24.910944", "MEAN_MOTION": 14.7530284, "ECCENTRICITY": 0.00013222, "INCLINATION": 97.6885, "RA_OF_ASC_NODE": 196.819, "ARG_OF_PERICENTER": 109.0146, "MEAN_ANOMALY": 251.1208, "EPHEMERIS_TYPE": 0, "CLASSIFICATION_TYPE": "U", "NORAD_CAT_ID": 39030, "ELEMENT_SET_NO": 999, "REV_AT_EPOCH": 69832, "BSTAR": 0.00010473569, "MEAN_MOTION_DOT": 6.62e-06, "MEAN_MOTION_DDOT": 0}, "tle": {"line1": "1 39030U 12073A   25355.60167721  .00000662  00000+0  10474-3 0  9990", "line2": "2 39030  97.6885 196.8190 0001322 109.0146 251.1208 14.75302840698324"}}, "geometry": {"type": "Point", "coordinates": [-73.24606888806201, -82.30633936480555]}}, {"type": "Feature", "properties": {"norad_id": 39084, "name": "LANDSAT 8", "group": "resource", "lat": -6.467224608311205, "lon": 64.66486203483248, "alt_km": 706.3896373353255, "timestamp": "2025-12-21T18:54:58.150291+00:00", "meta": {"OBJECT_NAME": "LANDSAT 8", "OBJECT_ID": "2013-008A", "EPOCH": "2025-12-21T10:42:20.579328", "MEAN_MOTION": 14.5711087, "ECCENTRICITY": 0.00010738, "INCLINATION": 98.2061, "RA_OF_ASC_NODE": 63.3906, "ARG_OF_PERICENTER": 91.3058, "MEAN_ANOMALY": 268.8264, "EPHEMERIS_TYPE": 0, "CLASSIFICATION_TYPE": "U", "NORAD_CAT_ID": 39084, "ELEMENT_SET_NO": 999, "REV_AT_EPOCH": 67201, "BSTAR": 8.7368053e-05, "MEAN_MOTION_DOT": 3.48e-06, "MEAN_MOTION_DDOT": 0}, "tle": {"line1": "1 39084U 13008A   25355.44607152  .00000348  00000+0  87368-4 0  9995", "line2": "2 39084  98.2061  63.3906 0001073  91.3058 268.8264 14.57110870672012"}}, "geometry": {"type": "Point", "coordinates": [64.66486203483248, -6.467224608311205]}}, {"type": "Feature", "properties": {"norad_id": 39086, "name": "SARAL", "group": "resource", "lat": -81.02854507811718, "lon": -72.75160433041312, "alt_km": 791.9680552673972, "timestamp": "2025-12-21T18:54:58.150300+00:00", "meta": {"OBJECT_NAME": "SARAL", "OBJECT_ID": "2013-009A", "EPOCH": "2025-12-21T14:19:13.381824", "MEAN_MOTION": 14.32759928, "ECCENTRICITY": 0.00029592, "INCLINATION": 98.5502, "RA_OF_ASC_NODE": 179.4115, "ARG_OF_PERICENTER": 92.1053, "MEAN_ANOMALY": 268.047, "EPHEMERIS_TYPE": 0, "CLASSIFICATION_TYPE": "U", "NORAD_CAT_ID": 39086, "ELEMENT_SET_NO": 999, "REV_AT_EPOCH": 67017, "BSTAR": 5.3264879e-05, "MEAN_MOTION_DOT": 1.01e-06, "MEAN_MOTION_DDOT": 0}, "tle": {"line1": "1 39086U 13009A   25355.59668266  .00000101  00000+0  53265-4 0  9993", "line2": "2 39086  98.5502 179.4115 0002959  92.1053 268.0470 14.32759928670178"}}, "geometry": {"type": "Point", "coordinates": [-72.75160433041312, -81.02854507811718]}}, {"type": "Feature", "properties": {"norad_id": 39150, "name": "GAOFEN-1", "group": "resource", "lat": 27.57166362864935, "lon": 62.112863577582495, "alt_km": 638.69531883133, "timestamp": "2025-12-21T18:54:58.150311+00:00", "meta": {"OBJECT_NAME": "GAOFEN-1", "OBJECT_ID": "2013-018A", "EPOCH": "2025-12-21T13:54:39.236256", "MEAN_MOTION": 14.76495832, "ECCENTRICITY": 0.00184418, "INCLINATION": 97.9323, "RA_OF_ASC_NODE": 66.0831, "ARG_OF_PERICENTER": 116.1182, "MEAN_ANOMALY": 244.1928, "EPHEMERIS_TYPE": 0, "CLASSIFICATION_TYPE": "U", "NORAD_CAT_ID": 39150, "ELEMENT_SET_NO": 999, "REV_AT_EPOCH": 68203, "BSTAR": 0.000156896, "MEAN_MOTION_DOT": 1.045e-05, "MEAN_MOTION_DDOT": 0}, "tle": {"line1": "1 39150U 13018A   25355.57962079  .00001045  00000+0  15690-3 0  9999", "line2": "2 39150  97.9323  66.0831 0018441 116.1182 244.1928 14.76495832682033"}}, "geometry": {"type": "Point", "coordinates": [62.112863577582495, 27.57166362864935]}}, {"type": "Feature", "properties": {"norad_id": 39160, "name": "VNREDSAT 1", "group": "resource", "lat": 71.69962092821756, "lon": 25.797218404253517, "alt_km": 669.5177878378963, "timestamp": "2025-12-21T18:54:58.150321+00:00", "meta": {"OBJECT_NAME": "VNREDSAT 1", "OBJECT_ID": "2013-021B", "EPOCH": "2025-12-21T15:18:12.788064", "MEAN_MOTION": 14.64935352, "ECCENTRICITY": 0.0001216, "INCLINATION": 97.9365, "RA_OF_ASC_NODE": 50.6009, "ARG_OF_PERICENTER": 80.6496, "MEAN_ANOMALY": 279.4845, "EPHEMERIS_TYPE": 0, "CLASSIFICATION_TYPE": "U", "NORAD_CAT_ID": 39160, "ELEMENT_SET_NO": 999, "REV_AT_EPOCH": 67429, "BSTAR": 0.00011584268, "MEAN_MOTION_DOT": 5.74e-06, "MEAN_MOTION_DDOT": 0}, "tle": {"line1": "1 39160U 13021B   25355.63764801  .00000574  00000+0  11584-3 0  9998", "line2": "2 39160  97.9365  50.6009 0001216  80.6496 279.4845 14.64935352674292"}}, "geometry": {"type": "Point", "coordinates": [25.797218404253517, 71.69962092821756]}}, {"type": "Feature", "properties": {"norad_id": 39227, "name": "ARIRANG-5 (KOMPSAT-5)", "group": "resource", "lat": -0.5402033105861527, "lon": -179.96520005894476, "alt_km": 554.1168418800644, "timestamp": "2025-12-21T18:54:58.150331+00:00", "meta": {"OBJECT_NAME": "ARIRANG-5 (KOMPSAT-5)", "OBJECT_ID": "2013-042A", "EPOCH": "2025-12-21T14:07:48.213408", "MEAN_MOTION": 15.04542254, "ECCENTRICITY": 0.00034059, "INCLINATION": 97.6155, "RA_OF_ASC_NODE": 179.766, "ARG_OF_PERICENTER": 35.6029, "MEAN_ANOMALY": 324.5424, "EPHEMERIS_TYPE": 0, "CLASSIFICATION_TYPE": "U", "NORAD_CAT_ID": 39227, "ELEMENT_SET_NO": 999, "REV_AT_EPOCH": 67715, "BSTAR": 0.00012382711, "MEAN_MOTION_DOT": 1.675e-05, "MEAN_MOTION_DDOT": 0}, "tle": {"line1": "1 39227U 13042A   25355.58875247  .00001675  00000+0  12383-3 0  9997", "line2": "2 39227  97.6155 179.7660 0003405  35.6029 324.5424 15.04542254677153"}}, "geometry": {"type": "Point", "coordinates": [-179.96520005894476, -0.5402033105861527]}}, {"type": "Feature", "properties": {"norad_id": 39418, "name": "SKYSAT-A", "group": "resource", "lat": -63.05299852357415, "lon": -149.1101053265833, "alt_km": 527.0515788310859, "timestamp": "2025-12-21T18:54:58.150341+00:00", "meta": {"OBJECT_NAME": "SKYSAT-A", "OBJECT_ID": "2013-066C", "EPOCH": "2025-12-21T14:39:46.934496", "MEAN_MOTION": 15.11663655, "ECCENTRICITY": 0.00213506, "INCLINATION": 97.4093, "RA_OF_ASC_NODE": 45.55, "ARG_OF_PERICENTER": 204.4384, "MEAN_ANOMALY": 155.5836, "EPHEMERIS_TYPE": 0, "CLASSIFICATION_TYPE": "U", "NORAD_CAT_ID": 39418, "ELEMENT_SET_NO": 999, "REV_AT_EPOCH": 66164, "BSTAR": 0.000176122, "MEAN_MOTION_DOT": 2.947e-05, "MEAN_MOTION_DDOT": 0}, "tle": {"line1": "1 39418U 13066C   25355.61095989  .00002947  00000+0  17612-3 0  9999", "line2": "2 39418  97.4093  45.5500 0021350 204.4384 155.5836 15.11663655661649"}}, "geometry": {"type": "Point", "coordinates": [-149.1101053265833, -63.05299852357415]}}, {"type": "Feature", "properties": {"norad_id": 39419, "name": "DUBAISAT-2", "group": "resource", "lat": -77.05229594822428, "lon": 20.576013644333567, "alt_km": 541.4278148473013, "timestamp": "2025-12-21T18:54:58.150350+00:00", "meta": {"OBJECT_NAME": "DUBAISAT-2", "OBJECT_ID": "2013-066D", "EPOCH": "2025-12-21T14:29:27.250368", "MEAN_MOTION": 15.08429586, "ECCENTRICITY": 0.00100481, "INCLINATION": 97.4439, "RA_OF_ASC_NODE": 345.7381, "ARG_OF_PERICENTER": 287.2094, "MEAN_ANOMALY": 72.8035, "EPHEMERIS_TYPE": 0, "CLASSIFICATION_TYPE": "U", "NORAD_CAT_ID": 39419, "ELEMENT_SET_NO": 999, "REV_AT_EPOCH": 65960, "BSTAR": 0.00020948531, "MEAN_MOTION_DOT": 3.202e-05, "MEAN_MOTION_DDOT": 0}, "tle": {"line1": "1 39419U 13066D   25355.60378762  .00003202  00000+0  20949-3 0  9994", "line2": "2 39419  97.4439 345.7381 0010048 287.2094  72.8035 15.08429586659609"}}, "geometry": {"type": "Point", "coordinates": [20.576013644333567, -77.05229594822428]}}, {"type": "Feature", "properties": {"norad_id": 39574, "name": "GPM-CORE", "group": "resource", "lat": -0.593907877577764, "lon": 2.658231035128901, "alt_km": 432.3598977520851, "timestamp": "2025-12-21T18:54:58.150360+00:00", "meta": {"OBJECT_NAME": "GPM-CORE", "OBJECT_ID": "2014-009C", "EPOCH": "2025-12-21T13:28:28.945632", "MEAN_MOTION": 15.44589692, "ECCENTRICITY": 0.00092978, "INCLINATION": 64.9718, "RA_OF_ASC_NODE": 183.1397, "ARG_OF_PERICENTER": 248.7595, "MEAN_ANOMALY": 111.2553, "EPHEMERIS_TYPE": 0, "CLASSIFICATION_TYPE": "U", "NORAD_CAT_ID": 39574, "ELEMENT_SET_NO": 999, "REV_AT_EPOCH": 67037, "BSTAR": 0.00014025798, "MEAN_MOTION_DOT": 6.314e-05, "MEAN_MOTION_DDOT": 0}, "tle": {"line1": "1 39574U 14009C   25355.56144613  .00006314  00000+0  14026-3 0  9991", "line2": "2 39574  64.9718 183.1397 0009297 248.7595 111.2553 15.44589692670378"}}, "geometry": {"type": "Point", "coordinates": [2.658231035128901, -0.593907877577764]}}]}